NORAD_CAT_ID,OBJECT_NAME,OBJECT_TYPE,EPOCH,MEAN_MOTION,ECCENTRICITY,INCLINATION,RA_OF_ASC_NODE,ARG_OF_PERICENTER,MEAN_ANOMALY,BSTAR,MEAN_MOTION_DOT,MEAN_MOTION_DDOT,TLE_LINE0,TLE_LINE1,TLE_LINE2,SEMIMAJOR_AXIS,PERIOD,APOGEE,PERIGEE,DECAYED
53839.0,STARLINK-4784,PAYLOAD,2023-06-11 20:16:59,15.0883688,0.000109,53.217,111.8217,89.4965,270.6152,6.1687e-05,6.94e-06,0.0,0 STARLINK-4784,1 53839U 22114X   23162.84513188  .00000694  00000-0  61687-4 0  9991,2 53839  53.2170 111.8217 0001090  89.4965 270.6152 15.08836880 41724,6917.89,95.438,540.509,539.001,0.0
53839.0,STARLINK-4784,PAYLOAD,2023-06-12 05:49:17,15.08844602,0.0001102,53.2166,110.0373,88.7512,271.3607,6.4884e-05,7.45e-06,0.0,0 STARLINK-4784,1 53839U 22114X   23163.24256649  .00000745  00000-0  64884-4 0  9991,2 53839  53.2166 110.0373 0001102  88.7512 271.3607 15.08844602 41787,6917.866,95.437,540.494,538.969,0.0
53839.0,STARLINK-4784,PAYLOAD,2023-06-12 13:46:13,15.08843717,0.0001144,53.2168,108.5504,88.43,271.6823,-2.2331e-05,-6.43e-06,0.0,0 STARLINK-4784,1 53839U 22114X   23163.57376959 -.00000643  00000-0 -22331-4 0  9994,2 53839  53.2168 108.5504 0001144  88.4300 271.6823 15.08843717 41830,6917.869,95.437,540.525,538.943,0.0
53839.0,STARLINK-4784,PAYLOAD,2023-06-13 02:29:19,15.08827912,0.0001119,53.217,106.1717,89.2375,270.8745,6.2222e-05,7.02e-06,0.0,0 STARLINK-4784,1 53839U 22114X   23164.10369813  .00000702  00000-0  62222-4 0  9992,2 53839  53.2170 106.1717 0001119  89.2375 270.8745 15.08827912 41378,6917.917,95.438,540.556,539.008,0.0
53839.0,STARLINK-4784,PAYLOAD,2023-06-13 05:40:05,15.08833119,0.0001339,53.2166,105.5766,95.2271,264.8873,3.7459e-05,3.08e-06,0.0,0 STARLINK-4784,1 53839U 22114X   23164.23617549  .00000308  00000-0  37459-4 0  9994,2 53839  53.2166 105.5766 0001339  95.2271 264.8873 15.08833119 41939,6917.901,95.438,540.693,538.84,0.0
53839.0,STARLINK-4784,PAYLOAD,2023-06-13 19:58:33,15.0883816,0.0001227,53.216,102.9002,89.3923,270.7209,-4.7528e-05,-1.044e-05,0.0,0 STARLINK-4784,1 53839U 22114X   23164.83233586 -.00001044  00000-0 -47528-4 0  9993,2 53839  53.2160 102.9002 0001227  89.3923 270.7209 15.08838160 42022,6917.886,95.438,540.6,538.902,0.0
53839.0,STARLINK-4784,PAYLOAD,2023-06-13 23:09:20,15.08837093,0.0001166,53.2164,102.3055,90.3763,269.7363,-3.6477e-05,-8.68e-06,0.0,0 STARLINK-4784,1 53839U 22114X   23164.96481597 -.00000868  00000-0 -36477-4 0  9998,2 53839  53.2164 102.3055 0001166  90.3763 269.7363 15.08837093 41509,6917.889,95.438,540.561,538.948,0.0
53839.0,STARLINK-4784,PAYLOAD,2023-06-14 05:30:52,15.08842653,0.0001189,53.2165,101.1152,93.8115,266.3013,-4.0164e-05,-9.27e-06,0.0,0 STARLINK-4784,1 53839U 22114X   23165.22977251 -.00000927  00000-0 -40164-4 0  9999,2 53839  53.2165 101.1152 0001189  93.8115 266.3013 15.08842653 42086,6917.872,95.437,540.56,538.915,0.0
53839.0,STARLINK-4784,PAYLOAD,2023-06-14 19:49:21,15.08833577,0.0001283,53.2166,98.4389,94.0312,266.0826,-8.5883e-06,-4.25e-06,0.0,0 STARLINK-4784,1 53839U 22114X   23165.82593759 -.00000425  00000-0 -85883-5 0  9993,2 53839  53.2166  98.4389 0001283  94.0312 266.0826 15.08833577 42178,6917.9,95.438,540.653,538.877,0.0
53839.0,STARLINK-4784,PAYLOAD,2023-06-15 05:21:39,15.08837497,0.0001273,53.2166,96.6554,91.0545,269.0593,1.4038e-05,-6.4e-07,0.0,0 STARLINK-4784,1 53839U 22114X   23166.22337518 -.00000064  00000-0  14038-4 0  9998,2 53839  53.2166  96.6554 0001273  91.0545 269.0593 15.08837497 42232,6917.888,95.438,540.634,538.872,0.0
53839.0,STARLINK-4784,PAYLOAD,2023-06-16 02:01:40,15.08843119,0.0001113,53.2167,92.7899,89.2656,270.8464,3.9217e-05,3.36e-06,0.0,0 STARLINK-4784,1 53839U 22114X   23167.08449249  .00000336  00000-0  39217-4 0  9995,2 53839  53.2167  92.7899 0001113  89.2656 270.8464 15.08843119 41826,6917.871,95.437,540.506,538.966,0.0
53839.0,STARLINK-4784,PAYLOAD,2023-06-16 11:33:58,15.08844717,0.0001139,53.2166,91.0059,89.9562,270.156,6.1507e-05,6.91e-06,0.0,0 STARLINK-4784,1 53839U 22114X   23167.48192944  .00000691  00000-0  61507-4 0  9997,2 53839  53.2166  91.0059 0001139  89.9562 270.1560 15.08844717 42428,6917.866,95.437,540.519,538.943,0.0
53839.0,STARLINK-4784,PAYLOAD,2023-06-16 19:30:54,15.08838668,0.0001154,53.2168,89.5191,91.5456,268.5669,1.7672e-05,-7e-08,0.0,0 STARLINK-4784,1 53839U 22114X   23167.81313524 -.00000007  00000-0  17672-4 0  9999,2 53839  53.2168  89.5191 0001154  91.5456 268.5669 15.08838668 42471,6917.884,95.438,540.548,538.951,0.0
53839.0,STARLINK-4784,PAYLOAD,2023-06-17 05:03:12,15.08847619,0.0001129,53.2168,87.7351,87.8236,272.2885,6.6863e-05,7.77e-06,0.0,0 STARLINK-4784,1 53839U 22114X   23168.21056687  .00000777  00000-0  66863-4 0  9997,2 53839  53.2168  87.7351 0001129  87.8236 272.2885 15.08847619 41999,6917.857,95.437,540.503,538.941,0.0
53839.0,STARLINK-4784,PAYLOAD,2023-06-17 17:46:20,15.08822174,0.0001249,53.2163,85.3556,85.3652,274.7482,-8.2929e-05,-1.607e-05,0.0,0 STARLINK-4784,1 53839U 22114X   23168.74051186 -.00001607  00000-0 -82929-4 0  9990,2 53839  53.2163  85.3556 0001249  85.3652 274.7482 15.08822174 42072,6917.935,95.439,540.664,538.936,0.0
53839.0,STARLINK-4784,PAYLOAD,2023-06-17 19:21:43,15.0882653,0.0001009,53.2163,85.0578,92.7404,267.3704,-0.00014197,-2.546e-05,0.0,0 STARLINK-4784,1 53839U 22114X   23168.80675135 -.00002546  00000-0 -14197-3 0  9997,2 53839  53.2163  85.0578 0001009  92.7404 267.3704 15.08826530 42620,6917.922,95.438,540.485,539.089,0.0
53839.0,STARLINK-4784,PAYLOAD,2023-06-18 04:54:02,15.08829301,0.0001063,53.2166,83.2736,93.8812,266.2302,-0.00010699,-1.99e-05,0.0,0 STARLINK-4784,1 53839U 22114X   23169.20419101 -.00001990  00000-0 -10699-3 0  9996,2 53839  53.2166  83.2736 0001063  93.8812 266.2302 15.08829301 42142,6917.913,95.438,540.513,539.043,0.0
53839.0,STARLINK-4784,PAYLOAD,2023-06-18 11:15:34,15.08835173,0.0001096,53.2173,82.0852,96.6177,263.494,-6.7029e-05,-1.354e-05,0.0,0 STARLINK-4784,1 53839U 22114X   23169.46914702 -.00001354  00000-0 -67029-4 0  9995,2 53839  53.2173  82.0852 0001096  96.6177 263.4940 15.08835173 42722,6917.895,95.438,540.518,539.002,0.0
53839.0,STARLINK-4784,PAYLOAD,2023-06-18 19:12:29,15.08840492,0.0001023,53.2169,80.5981,95.601,264.5099,-1.6042e-05,-5.43e-06,0.0,0 STARLINK-4784,1 53839U 22114X   23169.80034274 -.00000543  00000-0 -16042-4 0  9998,2 53839  53.2169  80.5981 0001023  95.6010 264.5099 15.08840492 42231,6917.879,95.438,540.452,539.036,0.0
53839.0,STARLINK-4784,PAYLOAD,2023-06-19 03:09:24,15.08848748,0.0001132,53.2174,79.1113,96.2956,263.8165,5.6501e-05,6.12e-06,0.0,0 STARLINK-4784,1 53839U 22114X   23170.13153457  .00000612  00000-0  56501-4 0  9990,2 53839  53.2174  79.1113 0001132  96.2956 263.8165 15.08848748 42288,6917.854,95.437,540.502,538.936,0.0
53839.0,STARLINK-4784,PAYLOAD,2023-06-20 03:00:12,15.08833001,0.000182,53.2184,74.65,110.9596,249.1591,5.4087e-05,5.73e-06,0.0,0 STARLINK-4784,1 53839U 22114X   23171.12514681  .00000573  00000-0  54087-4 0  9993,2 53839  53.2184  74.6500 0001820 110.9596 249.1591 15.08833001 42430,6917.902,95.438,541.026,538.508,0.0
53839.0,STARLINK-4784,PAYLOAD,2023-06-20 17:18:40,15.08837886,9.43e-05,53.2174,71.9745,108.2761,251.8334,2.9794e-05,1.86e-06,0.0,0 STARLINK-4784,1 53839U 22114X   23171.72130482  .00000186  00000-0  29794-4 0  9999,2 53839  53.2174  71.9745 0000943 108.2761 251.8334 15.08837886 43069,6917.887,95.438,540.404,539.099,0.0
53839.0,STARLINK-4784,PAYLOAD,2023-06-21 10:47:54,15.08844685,0.0001118,53.2175,68.704,101.4333,258.6785,-3.8968e-05,-9.08e-06,0.0,0 STARLINK-4784,1 53839U 22114X   23172.44994114 -.00000908  00000-0 -38968-4 0  9996,2 53839  53.2175  68.7040 0001118 101.4333 258.6785 15.08844685 42639,6917.866,95.437,540.504,538.958,0.0
53839.0,STARLINK-4784,PAYLOAD,2023-06-21 20:20:14,15.08841014,0.0001115,53.2175,66.9206,93.4781,266.6339,-6.0282e-05,-1.247e-05,0.0,0 STARLINK-4784,1 53839U 22114X   23172.84738549 -.00001247  00000-0 -60282-4 0  9999,2 53839  53.2175  66.9206 0001115  93.4781 266.6339 15.08841014 43231,6917.877,95.437,540.514,538.971,0.0
53839.0,STARLINK-4784,PAYLOAD,2023-06-23 00:57:09,15.08845367,0.000117,53.2178,61.5681,88.8552,271.2575,2.5921e-05,1.25e-06,0.0,0 STARLINK-4784,1 53839U 22114X   23174.03969898  .00000125  00000-0  25921-4 0  9998,2 53839  53.2178  61.5681 0001170  88.8552 271.2575 15.08845367 42875,6917.864,95.437,540.538,538.92,0.0
53839.0,STARLINK-4784,PAYLOAD,2023-06-23 16:51:02,15.08834054,0.0001367,53.2181,58.5914,107.0078,253.1064,-3.099e-05,-7.81e-06,0.0,0 STARLINK-4784,1 53839U 22114X   23174.70210742 -.00000781  00000-0 -30990-4 0  9991,2 53839  53.2181  58.5914 0001367 107.0078 253.1064 15.08834054 42973,6917.899,95.438,540.709,538.818,0.0
53839.0,STARLINK-4784,PAYLOAD,2023-06-24 00:47:57,15.0884598,0.0001153,53.2176,57.1082,89.9018,270.2107,9.173e-06,-1.42e-06,0.0,0 STARLINK-4784,1 53839U 22114X   23175.03329887 -.00000142  00000-0  91730-5 0  9999,2 53839  53.2176  57.1082 0001153  89.9018 270.2107 15.08845980 43028,6917.862,95.437,540.525,538.929,0.0
53839.0,STARLINK-4784,PAYLOAD,2023-06-24 08:44:53,15.08834167,0.0001644,53.2185,55.618,73.4377,286.6796,-4.5239e-05,-1.008e-05,0.0,0 STARLINK-4784,1 53839U 22114X   23175.36450912 -.00001008  00000-0 -45239-4 0  9994,2 53839  53.2185  55.6180 0001644  73.4377 286.6796 15.08834167 43076,6917.898,95.438,540.901,538.626,0.0
53839.0,STARLINK-4784,PAYLOAD,2023-06-25 02:14:07,15.08843157,9.4e-05,53.217,52.3503,82.0549,278.055,-3.8453e-05,-9e-06,0.0,0 STARLINK-4784,1 53839U 22114X   23176.09314351 -.00000900  00000-0 -38453-4 0  9991,2 53839  53.2170  52.3503 0000940  82.0549 278.0550 15.08843157 43182,6917.871,95.437,540.386,539.085,0.0
53839.0,STARLINK-4784,PAYLOAD,2023-06-25 08:35:40,15.08836889,9.05e-05,53.217,51.1613,93.7608,266.3487,-5.1349e-05,-1.105e-05,0.0,0 STARLINK-4784,1 53839U 22114X   23176.35810818 -.00001105  00000-0 -51349-4 0  9996,2 53839  53.2170  51.1613 0000905  93.7608 266.3487 15.08836889 43225,6917.89,95.438,540.381,539.129,0.0
